STARLINK-11554 [DTC]    
1 62833C 25019E   26094.77687500 -.00122210  00000+0 -95142-3 0   949
2 62833  43.0002 149.0440 0001606 272.3747 322.4683 15.70842925    12
STARLINK-11520 [DTC]    
1 62834C 25019F   26094.73173611  .00093996  00000+0  73233-3 0   942
2 62834  43.0000 148.7930 0002274 250.4626 299.2213 15.70716535    13
STARLINK-11546 [DTC]    
1 62835C 25019G   26094.79284722  .00061608  00000+0  47968-3 0   946
2 62835  43.0001 149.1712 0002380 264.8817 330.1583 15.70747362    14
STARLINK-11533 [DTC]    
1 62836C 25019H   26094.75881944 -.00120890  00000+0 -94146-3 0   943
2 62836  42.9998 148.9273 0001661 268.7328 314.0851 15.70833729    10
STARLINK-11557 [DTC]    
1 62837C 25019J   26094.71159722  .00118180  00000+0  92046-3 0   946
2 62837  42.9999 148.9879 0002166 250.3637 155.2401 15.70712848    19
STARLINK-11556 [DTC]    
1 62838C 25019K   26094.79145833  .00064448  00000+0  50196-3 0   940
2 62838  43.0001 148.4434 0002023 246.5810 276.0579 15.70739632    18
STARLINK-11524 [DTC]    
1 62839C 25019L   26094.83381944  .00035375  00000+0  27541-3 0   946
2 62839  43.0002 148.7725 0002352 249.8171 277.3534 15.70762528    12
STARLINK-11551 [DTC]    
1 62840C 25019M   26094.79979167  .00062062  00000+0  48320-3 0   944
2 62840  43.0000 148.5288 0002081 246.5530 268.3088 15.70748968    12
STARLINK-11531 [DTC]    
1 62841C 25019N   26094.74076389  .00086266  00000+0  67063-3 0   941
2 62841  42.9998 149.1090 0001535 284.7048 165.7296 15.70774453    15
STARLINK-32755          
1 62842C 25019P   26094.77062500 -.00096479  00000+0 -34940-2 0   941
2 62842  43.0008 294.6479 0001437 266.7964   1.0430 15.27630754    14
STARLINK-32797          
1 62843C 25019Q   26094.73243056 -.00032887  00000+0 -11912-2 0   942
2 62843  43.0011 301.8399 0001326 259.5136 134.9991 15.27594104    15
STARLINK-32794          
1 62844C 25019R   26094.76020833 -.00117830  00000+0 -42671-2 0   940
2 62844  43.0025 302.0198 0001477 263.0962 142.9051 15.27640983    18
STARLINK-32807          
1 62845C 25019S   26094.72062500 -.00062388  00000+0 -22593-2 0   942
2 62845  43.0011 294.5361 0001923 269.1219 246.1281 15.27614798    16
STARLINK-32804          
1 62846C 25019T   26094.75604167 -.00120640  00000+0 -43671-2 0   943
2 62846  43.0004 301.8104 0001356 283.1148 198.9494 15.27658577    16
STARLINK-32799          
1 62847C 25019U   26094.75048611 -.00076008  00000+0 -27523-2 0   946
2 62847  43.0012 301.6353 0001593 257.3624 279.0487 15.27624963    10
STARLINK-32781          
1 62848C 25019V   26094.75743056 -.00061835  00000+0 -22392-2 0   943
2 62848  43.0006 301.7859 0001689 266.9637 229.8662 15.27615073    12
STARLINK-32809          
1 62849C 25019W   26094.78312500 -.00005404  00000+0 -19584-3 0   943
2 62849  43.0020 301.3154 0001981 261.4310 151.1889 15.27562259    11
STARLINK-32868          
1 62854C 25022A   26094.75812500  .00027464  00000+0  92714-3 0   949
2 62854  53.1600   8.1830 0001201 100.7246 351.2377 15.30124969    15
STARLINK-32867          
1 62855C 25022B   26094.77201389  .00038694  00000+0  13061-2 0   943
2 62855  53.1600   8.1431 0001173  94.8969  56.1747 15.30123887    16
STARLINK-32860          
1 62856C 25022C   26094.77965278  .00051489  00000+0  17386-2 0   949
2 62856  53.1596   8.7000 0001166 100.9264 155.6078 15.30106854    15
STARLINK-32873          
1 62857C 25022D   26094.80673611  .00038059  00000+0  12848-2 0   947
2 62857  53.1596   8.5686 0001073  99.5525 312.0562 15.30120415    10
STARLINK-32866          
1 62858C 25022E   26094.72479167 -.00009871  00000+0 -33314-3 0   943
2 62858  53.1601   8.4159 0001128  97.3886 130.1250 15.30152572    11
STARLINK-32869          
1 62859C 25022F   26094.79631944  .00044156  00000+0  14900-2 0   946
2 62859  53.1609   8.1966 0001328  95.9389 101.8424 15.30130790    13
STARLINK-32831          
1 62860C 25022G   26094.79284722  .00032703  00000+0  11037-2 0   949
2 62860  53.1606   8.3209 0001298  89.0415  43.0617 15.30131551    11
STARLINK-32859          
1 62861C 25022H   26094.77965278  .00048573  00000+0  16399-2 0   948
2 62861  53.1600   8.7464 0001242  71.4757 161.7954 15.30111785    15
STARLINK-32864          
1 62862C 25022J   26094.77270833  .00053199  00000+0  17962-2 0   942
2 62862  53.1607   8.3776 0001202 107.6811 285.0783 15.30106999    15
STARLINK-32808          
1 62863C 25022K   26094.75604167  .00027003  00000+0  91073-3 0   943
2 62863  53.1594   8.7081 0001179  84.7669  93.9136 15.30156190    19
STARLINK-32862          
1 62864C 25022L   26094.70604167 -.00013954  00000+0 -47080-3 0   940
2 62864  53.1593   9.0003 0001171 101.0544 132.9637 15.30164325    13
STARLINK-32841          
1 62865C 25022M   26094.82687500  .00030495  00000+0  10290-2 0   945
2 62865  53.1598   8.2213 0001134 103.9245 186.6150 15.30137402    13
STARLINK-32695          
1 62866C 25022N   26094.75673611  .00060250  00000+0  20349-2 0   944
2 62866  53.1604   8.2339 0001425  96.6987 324.3569 15.30094212    11
STARLINK-32846          
1 62867C 25022P   26094.77895833  .00020225  00000+0  68258-3 0   949
2 62867  53.1607   8.3224 0001267 102.2259 336.5986 15.30138185    15
STARLINK-32822          
1 62868C 25022Q   26094.76576389  .00042525  00000+0  14350-2 0   941
2 62868  53.1596   8.5361 0001394 107.5695 188.7097 15.30131399    10
STARLINK-32813          
1 62869C 25022R   26094.77826389  .00054339  00000+0  18346-2 0   946
2 62869  53.1594   8.6423 0001064 100.2405 183.5382 15.30109204    12
STARLINK-32861          
1 62870C 25022S   26094.83173611  .00025881  00000+0  87395-3 0   949
2 62870  53.1602   7.9117 0001537 121.5695 341.1946 15.30116997    13
STARLINK-32814          
1 62871C 25022T   26094.71645833  .00045341  00000+0  15304-2 0   940
2 62871  53.1595   8.7919 0001066 100.8633 272.0348 15.30122512    11
STARLINK-32849          
1 62872C 25022U   26094.73451389  .00047215  00000+0  15939-2 0   940
2 62872  53.1597   8.9492 0001335  98.2759 252.0142 15.30115108    13
STARLINK-32833          
1 62873C 25022V   26094.83312500  .00026936  00000+0  90948-3 0   944
2 62873  53.1606   8.1003 0001356  92.3441 279.1990 15.30120244    19
STARLINK-32793          
1 62874C 25022W   26094.78520833  .00149730  00000+0  50594-2 0   949
2 62874  53.1597   8.5330 0001016 109.0644 253.6606 15.30034246    17
STARLINK-32834          
1 62875C 25022X   26094.78520833  .00041513  00000+0  13982-2 0   940
2 62875  53.1604   8.3435 0001279 116.0510 339.6547 15.30191959    16
STARLINK-11371 [DTC]    
1 62879C 25024A   26094.81229167 -.00021071  00000+0 -16407-3 0   941
2 62879  43.0006  24.2932 0001436 259.4155  31.6672 15.70788875    16
STARLINK-11352 [DTC]    
1 62880C 25024B   26094.81020833  .00104890  00000+0  81482-3 0   946
2 62880  43.0008  23.7825 0002001 243.0357 246.6080 15.70781029    12
STARLINK-11382 [DTC]    
1 62881C 25024C   26094.72826389 -.00173180  00000+0 -13497-2 0   947
2 62881  43.0005  24.5739 0001520 272.6851 352.8455 15.70843727    15
STARLINK-11432 [DTC]    
1 62882C 25024D   26094.73243056 -.00002186  00000+0 -17052-4 0   943
2 62882  43.0004  24.6979 0001262 283.8594 305.1433 15.70740267    15
STARLINK-11419 [DTC]    
1 62883C 25024E   26094.80881944 -.00010778  00000+0 -83903-4 0   940
2 62883  43.0008  24.0135 0001310 268.5236 123.1501 15.70789501    13
STARLINK-11437 [DTC]    
1 62884C 25024F   26094.76437500 -.00099412  00000+0 -77527-3 0   947
2 62884  43.0004  24.4301 0002043 265.2929 174.6373 15.70790128    11
STARLINK-11442 [DTC]    
1 62885C 25024G   26094.79076389  .00115600  00000+0  89908-3 0   947
2 62885  43.0009  23.7474 0001694 246.9779 192.6900 15.70748023    13
STARLINK-11365 [DTC]    
1 62886C 25024H   26094.74006944 -.00051677  00000+0 -40289-3 0   947
2 62886  43.0008  24.1269 0001744 286.5925 196.0798 15.70773549    13
STARLINK-11436 [DTC]    
1 62887C 25024J   26094.76993056 -.00043816  00000+0 -34107-3 0   947
2 62887  43.0006  24.1709 0001493 270.1736 291.3744 15.70808331    19
STARLINK-11438 [DTC]    
1 62888C 25024K   26094.78868056 -.00063709  00000+0 -49587-3 0   942
2 62888  43.0007  23.8461 0001584 250.7103 142.0161 15.70819799    10
STARLINK-11391 [DTC]    
1 62889C 25024L   26094.82270833  .00082299  00000+0  64218-3 0   949
2 62889  43.0003  23.7703 0001882 279.5961 250.8771 15.70686720    18
STARLINK-11431 [DTC]    
1 62890C 25024M   26094.78381944 -.00030238  00000+0 -23503-3 0   942
2 62890  43.0005  24.6091 0001169 264.5678 165.1058 15.70837077    18
STARLINK-11435 [DTC]    
1 62891C 25024N   26094.78798611  .00050380  00000+0  39196-3 0   949
2 62891  43.0004  24.5087 0001928 260.3361 223.0581 15.70772916    13
STARLINK-32878          
1 62892C 25024P   26094.72201389 -.00130580  00000+0 -47355-2 0   943
2 62892  42.9998 178.4797 0001208 264.4994 171.2297 15.27603079    12
STARLINK-32892          
1 62893C 25024Q   26094.82687500  .00019095  00000+0  69251-3 0   943
2 62893  42.9994 177.9320 0001718 261.7914  10.0016 15.27527149    15
STARLINK-32909          
1 62894C 25024R   26094.83312500  .00013025  00000+0  47230-3 0   940
2 62894  42.9992 177.9828 0001430 266.0777   4.7215 15.27533710    15
STARLINK-32901          
1 62895C 25024S   26094.80187500  .00031723  00000+0  11503-2 0   946
2 62895  43.0022 177.7885 0001648 271.4057 342.9939 15.27525307    18
STARLINK-32890          
1 62896C 25024T   26094.82131944  .00025563  00000+0  92704-3 0   948
2 62896  43.0003 177.2872 0001785 268.8045 255.3914 15.27523918    14
STARLINK-32893          
1 62897C 25024U   26094.75395833  .00068932  00000+0  25000-2 0   941
2 62897  43.0019 177.8209 0001459 263.0548 186.5938 15.27500691    19
STARLINK-32902          
1 62898C 25024V   26094.73312500  .00077959  00000+0  28255-2 0   944
2 62898  43.0016 177.8840 0001809 286.2062  69.9786 15.27517798    16
